{
    "links": {
        "self": "http://www.neowsapp.com/rest/v1/neo/3770139?api_key=iIulBulltgU6a56xZRHN4H3l9WmuAYTsLGpBGhQ2"
    },
    "id": "3770139",
    "neo_reference_id": "3770139",
    "name": "(2017 DU37)",
    "designation": "2017 DU37",
    "nasa_jpl_url": "http://ssd.jpl.nasa.gov/sbdb.cgi?sstr=3770139",
    "absolute_magnitude_h": 25.3,
    "estimated_diameter": {
        "kilometers": {
            "estimated_diameter_min": 0.0231502122,
            "estimated_diameter_max": 0.0517654482
        },
        "meters": {
            "estimated_diameter_min": 23.150212221,
            "estimated_diameter_max": 51.7654482198
        },
        "miles": {
            "estimated_diameter_min": 0.0143848705,
            "estimated_diameter_max": 0.0321655483
        },
        "feet": {
            "estimated_diameter_min": 75.9521422633,
            "estimated_diameter_max": 169.8341531374
        }
    },
    "is_potentially_hazardous_asteroid": false,
    "close_approach_data": [
        {
            "close_approach_date": "2017-02-22",
            "close_approach_date_full": "2017-Feb-22 07:01",
            "epoch_date_close_approach": 1487746860000,
            "relative_velocity": {
                "kilometers_per_second": "2.4579060886",
                "kilometers_per_hour": "8848.4619187904",
                "miles_per_hour": "5498.0901294839"
            },
            "miss_distance": {
                "astronomical": "0.1265659236",
                "lunar": "49.2341442804",
                "kilometers": "18933992.585142732",
                "miles": "11765037.4403724216"
            },
            "orbiting_body": "Earth"
        },
        {
            "close_approach_date": "2110-02-24",
            "close_approach_date_full": "2110-Feb-24 02:56",
            "epoch_date_close_approach": 4422653760000,
            "relative_velocity": {
                "kilometers_per_second": "2.5555264582",
                "kilometers_per_hour": "9199.8952495962",
                "miles_per_hour": "5716.457134395"
            },
            "miss_distance": {
                "astronomical": "0.1312026338",
                "lunar": "51.0378245482",
                "kilometers": "19627634.554870006",
                "miles": "12196046.5742018428"
            },
            "orbiting_body": "Earth"
        }
    ],
    "orbital_data": {
        "orbit_id": "7",
        "orbit_determination_date": "2017-04-13 06:13:11",
        "first_observation_date": "2017-02-24",
        "last_observation_date": "2017-03-18",
        "data_arc_in_days": 22,
        "observations_used": 29,
        "orbit_uncertainty": "8",
        "minimum_orbit_intersection": ".1249",
        "jupiter_tisserand_invariant": "4.224",
        "epoch_osculation": "2457810.5",
        "eccentricity": ".3245542959933209",
        "semi_major_axis": "1.646373421643512",
        "inclination": "1.341312995918092",
        "ascending_node_longitude": "33.73116641315931",
        "orbital_period": "771.597739203841",
        "perihelion_distance": "1.112035854839887",
        "perihelion_argument": "117.0435177067706",
        "aphelion_distance": "2.180710988447137",
        "perihelion_time": "2457805.074794587872",
        "mean_anomaly": "2.531207453227278",
        "mean_motion": ".4665643530415983",
        "equinox": "J2000",
        "orbit_class": {
            "orbit_class_type": "AMO",
            "orbit_class_description": "Near-Earth asteroid orbits similar to that of 1221 Amor",
            "orbit_class_range": "1.017 AU < q (perihelion) < 1.3 AU"
        }
    },
    "is_sentry_object": false
}